NORAD_CAT_ID,OBJECT_NAME,OBJECT_TYPE,EPOCH,MEAN_MOTION,ECCENTRICITY,INCLINATION,RA_OF_ASC_NODE,ARG_OF_PERICENTER,MEAN_ANOMALY,BSTAR,MEAN_MOTION_DOT,MEAN_MOTION_DDOT,TLE_LINE0,TLE_LINE1,TLE_LINE2,SEMIMAJOR_AXIS,PERIOD,APOGEE,PERIGEE,DECAYED
53244.0,STARLINK-4125,PAYLOAD,2022-09-22 14:00:01,15.08825419,0.0001467,53.215,118.9145,58.5786,22.5002,0.0002041999999999,2.962e-05,0.0,0 STARLINK-4125,1 53244U 22086C   22265.58334491  .00002962  00000-0  20420-3 0  9990,2 53244  53.2150 118.9145 0001467  58.5786  22.5002 15.08825419  1300,6917.925,95.438,540.805,538.775,0.0
53244.0,STARLINK-4125,PAYLOAD,2022-09-22 22:00:00,15.08819063,0.0001603,53.2147,117.4199,51.5022,41.1579,8.6045e-05,1.081e-05,0.0,0 STARLINK-4125,1 53244U 22086C   22265.91667824  .00001081  00000-0  86045-4 0  9993,2 53244  53.2147 117.4199 0001603  51.5022  41.1579 15.08819063  1301,6917.944,95.439,540.918,538.7,0.0
53244.0,STARLINK-4125,PAYLOAD,2022-09-23 06:00:00,15.08840544,0.000153,53.2144,115.9226,52.3643,51.8634,-0.0018364,-0.00029396,0.0,0 STARLINK-4125,1 53244U 22086C   22266.25001157 -.00029396  00000-0 -18364-2 0  9990,2 53244  53.2144 115.9226 0001530  52.3643  51.8634 15.08840544 10004,6917.879,95.438,540.802,538.685,0.0
53244.0,STARLINK-4125,PAYLOAD,2022-09-23 14:00:01,15.08829947,0.000149,53.2144,114.4253,59.3452,56.4668,0.0012067,0.00018964,0.0,0 STARLINK-4125,1 53244U 22086C   22266.58334491  .00018964  00000-0  12067-2 0  9997,2 53244  53.2144 114.4253 0001490  59.3452  56.4668 15.08829947  1303,6917.911,95.438,540.807,538.745,0.0
53244.0,STARLINK-4125,PAYLOAD,2022-09-23 22:00:00,15.08831232,0.0001641999999999,53.2142,112.9307,52.1105,75.2964,0.00075708,0.00011779,0.0,0 STARLINK-4125,1 53244U 22086C   22266.91667824  .00011779  00000-0  75708-3 0  9992,2 53244  53.2142 112.9307 0001642  52.1105  75.2964 15.08831232  1307,6917.906999999997,95.438,540.908,538.636,0.0
53244.0,STARLINK-4125,PAYLOAD,2022-09-24 14:00:01,15.08853661,0.0001545,53.214,109.9357,59.2125,91.451,0.00092604,0.00014486,0.0,0 STARLINK-4125,1 53244U 22086C   22267.58335648  .00014486  00000-0  92604-3 0  9994,2 53244  53.2140 109.9357 0001545  59.2125  91.4510 15.08853661  1305,6917.839,95.437,540.7719999999998,538.635,0.0
53244.0,STARLINK-4125,PAYLOAD,2022-09-24 22:00:00,15.08855835,0.0001663,53.2139,108.441,50.7039,111.5176,-0.0016109,-0.00025845,0.0,0 STARLINK-4125,1 53244U 22086C   22267.91667824 -.00025845  00000-0 -16109-2 0  9993,2 53244  53.2139 108.4410 0001663  50.7039 111.5176 15.08855835  1305,6917.831999999999,95.437,540.847,538.547,0.0
53244.0,STARLINK-4125,PAYLOAD,2022-09-25 06:00:00,15.08864288,0.0001569,53.2138,106.9432,51.7652,122.0574,-0.0039253,-0.00062261,0.0,0 STARLINK-4125,1 53244U 22086C   22268.25001157 -.00062261  00000-0 -39253-2 0  9990,2 53244  53.2138 106.9432 0001569  51.7652 122.0574 15.08864288 10309,6917.806,95.436,540.757,538.586,0.0
53244.0,STARLINK-4125,PAYLOAD,2022-09-25 14:00:01,15.08824559,0.0001619,53.2142,105.4455,58.8434,126.5772,0.0006677,0.0001035,0.0,0 STARLINK-4125,1 53244U 22086C   22268.58334491  .00010350  00000-0  66770-3 0  9991,2 53244  53.2142 105.4455 0001619  58.8434 126.5772 15.08824559  1301,6917.928000000001,95.439,540.913,538.673,0.0
53244.0,STARLINK-4125,PAYLOAD,2022-09-25 22:00:01,15.08811462,0.0001806,53.2142,103.9509,51.3549,145.7115,0.0019711999999999,0.00031199,0.0,0 STARLINK-4125,1 53244U 22086C   22268.91668981  .00031199  00000-0  19712-2 0  9999,2 53244  53.2142 103.9509 0001806  51.3549 145.7115 15.08811462 10401,6917.968000000003,95.439,541.082,538.5830000000002,0.0
53244.0,STARLINK-4125,PAYLOAD,2022-09-26 14:00:01,15.08843001,0.000171,53.2144,100.9565,58.7448,161.409,0.00011039,1.469e-05,0.0,0 STARLINK-4125,1 53244U 22086C   22269.58334491  .00001469  00000-0  11039-3 0  9991,2 53244  53.2144 100.9565 0001710  58.7448 161.4090 15.08843001 10507,6917.871,95.437,540.919,538.553,0.0
53244.0,STARLINK-4125,PAYLOAD,2022-09-26 22:00:00,15.08824592,0.0001884,53.2144,99.4615,51.5922,180.167,0.0022979,0.00036457,0.0,0 STARLINK-4125,1 53244U 22086C   22269.91667824  .00036457  00000-0  22979-2 0  9996,2 53244  53.2144  99.4615 0001884  51.5922 180.1670 15.08824592  1309,6917.927,95.439,541.096,538.489,0.0
53244.0,STARLINK-4125,PAYLOAD,2022-09-27 14:00:01,15.08865609,0.0001811999999999,53.2149,96.4668,60.093,194.8657,-0.0023441,-0.00037428,0.0,0 STARLINK-4125,1 53244U 22086C   22270.58334491 -.00037428  00000-0 -23441-2 0  9998,2 53244  53.2149  96.4668 0001812  60.0930 194.8657 15.08865609  1305,6917.802,95.436,540.9209999999998,538.414,0.0
53244.0,STARLINK-4125,PAYLOAD,2022-09-27 22:00:01,15.08820096,0.0002005999999999,53.2149,94.9718,53.9772,212.6611,0.0029673,0.00047228,0.0,0 STARLINK-4125,1 53244U 22086C   22270.91668981  .00047228  00000-0  29673-2 0  9999,2 53244  53.2149  94.9718 0002006  53.9772 212.6611 15.08820096  1305,6917.941,95.439,541.194,538.418,0.0
53244.0,STARLINK-4125,PAYLOAD,2022-09-28 14:00:01,15.088713,0.0001763,53.2153,91.9774,59.976000000000006,229.7895,-0.0034012,-0.00054059,0.0,0 STARLINK-4125,1 53244U 22086C   22271.58334491 -.00054059  00000-0 -34012-2 0  9994,2 53244  53.2153  91.9774 0001763  59.9760 229.7895 15.08871300  1308,6917.785,95.436,540.869,538.43,0.0
53244.0,STARLINK-4125,PAYLOAD,2022-09-28 22:00:00,15.08818565,0.0001833,53.2152,90.4824,51.4828,249.8901,-0.00014374,-2.574e-05,0.0,0 STARLINK-4125,1 53244U 22086C   22271.91667824 -.00002574  00000-0 -14374-3 0  9995,2 53244  53.2152  90.4824 0001833  51.4828 249.8901 15.08818565  1302,6917.946,95.439,541.0790000000002,538.543,0.0
53244.0,STARLINK-4125,PAYLOAD,2022-09-29 14:00:01,15.08827471,0.0001621,53.2155,87.4883,57.5246,266.9705,-0.00094077,-0.00015224,0.0,0 STARLINK-4125,1 53244U 22086C   22272.58334491 -.00015224  00000-0 -94077-3 0  9994,2 53244  53.2155  87.4883 0001621  57.5246 266.9705 15.08827471  1300,6917.919,95.438,540.905,538.6619999999998,0.0
53244.0,STARLINK-4125,PAYLOAD,2022-09-29 22:00:00,15.08799038,0.0001771,53.2153,85.9934,50.984,285.0913,0.0029436,0.00046818,0.0,0 STARLINK-4125,1 53244U 22086C   22272.91667824  .00046818  00000-0  29436-2 0  9997,2 53244  53.2153  85.9934 0001771  50.9840 285.0913 15.08799038  1301,6918.005999999999,95.44,541.096,538.645,0.0
53244.0,STARLINK-4125,PAYLOAD,2022-09-30 14:00:01,15.08850516,0.0001644,53.2155,82.9996,57.8587,301.3586,-0.0010899,-0.00017597,0.0,0 STARLINK-4125,1 53244U 22086C   22273.58334491 -.00017597  00000-0 -10899-2 0  9999,2 53244  53.2155  82.9996 0001644  57.8587 301.3586 15.08850516  1308,6917.848000000001,95.437,540.851,538.576,0.0
53244.0,STARLINK-4125,PAYLOAD,2022-09-30 16:00:00,15.08850142,0.0001698,53.2153,82.626,55.5551,36.5628,-0.0014575,-0.00023416,0.0,0 STARLINK-4125,1 53244U 22086C   22273.66667824 -.00023416  00000-0 -14575-2 0  9999,2 53244  53.2153  82.6260 0001698  55.5551  36.5628 15.08850142 11122,6917.849,95.437,540.889,538.54,0.0
53244.0,STARLINK-4125,PAYLOAD,2022-09-30 22:00:00,15.08822719,0.0001779,53.2152,81.5045,51.2923,319.532,0.0032696999999999,0.0005211,0.0,0 STARLINK-4125,1 53244U 22086C   22273.91667824  .00052110  00000-0  32697-2 0  9993,2 53244  53.2152  81.5045 0001779  51.2923 319.5320 15.08822719  1307,6917.933000000001,95.439,541.029,538.568,0.0
53244.0,STARLINK-4125,PAYLOAD,2022-10-01 06:00:00,15.08840323,0.0001626,53.2152,80.0065,56.5852,325.8411,0.0015333,0.00024199,0.0,0 STARLINK-4125,1 53244U 22086C   22274.25001157  .00024199  00000-0  15333-2 0  9996,2 53244  53.2152  80.0065 0001626  56.5852 325.8411 15.08840323 11216,6917.879,95.438,540.869,538.62,0.0
53244.0,STARLINK-4125,PAYLOAD,2022-10-01 14:00:01,15.08886435,0.0001659,53.2153,78.5107,56.3183,337.7057,-0.0044971,-0.00071243,0.0,0 STARLINK-4125,1 53244U 22086C   22274.58334491 -.00071243  00000-0 -44971-2 0  9996,2 53244  53.2153  78.5107 0001659  56.3183 337.7057 15.08886435  1308,6917.738,95.435,540.751,538.456,0.0
53244.0,STARLINK-4125,PAYLOAD,2022-10-01 22:00:00,15.08831077,0.0001764999999999,53.2151,77.0155,49.0175,356.6312,0.00081642,0.00012726,0.0,0 STARLINK-4125,1 53244U 22086C   22274.91667824  .00012726  00000-0  81642-3 0  9998,2 53244  53.2151  77.0155 0001765  49.0175 356.6312 15.08831077 11319,6917.908,95.438,540.994,538.552,0.0
53244.0,STARLINK-4125,PAYLOAD,2022-10-02 14:00:01,15.08845904,0.0001802,53.2153,74.0216,56.4584,12.3532,-0.0013210999999999,-0.00021256,0.0,0 STARLINK-4125,1 53244U 22086C   22275.58334491 -.00021256  00000-0 -13211-2 0  9999,2 53244  53.2153  74.0216 0001802  56.4584  12.3532 15.08845904 11419,6917.861999999999,95.437,540.974,538.481,0.0
53244.0,STARLINK-4125,PAYLOAD,2022-10-02 22:00:00,15.08821659,0.0001906999999999,53.2152,72.5263,49.8234,30.5871,0.0033751999999999,0.00053812,0.0,0 STARLINK-4125,1 53244U 22086C   22275.91667824  .00053812  00000-0  33752-2 0  9998,2 53244  53.2152  72.5263 0001907  49.8234  30.5871 15.08821659  1303,6917.936,95.439,541.121,538.482,0.0
53244.0,STARLINK-4125,PAYLOAD,2022-10-03 06:00:00,15.08839692,0.0001747,53.2155,71.028,54.4099,37.6028,0.0017576,0.00027795,0.0,0 STARLINK-4125,1 53244U 22086C   22276.25001157  .00027795  00000-0  17576-2 0  9994,2 53244  53.2155  71.0280 0001747  54.4099  37.6028 15.08839692 11514,6917.880999999999,95.438,540.955,538.538,0.0
53244.0,STARLINK-4125,PAYLOAD,2022-10-03 14:00:01,15.08869163,0.00018,53.2156,69.5323,53.0951,50.5276,-0.0021747,-0.0003476,0.0,0 STARLINK-4125,1 53244U 22086C   22276.58334491 -.00034760  00000-0 -21747-2 0  9997,2 53244  53.2156  69.5323 0001800  53.0951  50.5276 15.08869163  1308,6917.791,95.436,540.901,538.411,0.0
53244.0,STARLINK-4125,PAYLOAD,2022-10-03 22:00:00,15.08848297,0.000186,53.2155,68.0368,45.2648,69.9745,-0.00013703,-2.469e-05,0.0,0 STARLINK-4125,1 53244U 22086C   22276.91667824 -.00002469  00000-0 -13703-3 0  9998,2 53244  53.2155  68.0368 0001860  45.2648  69.9745 15.08848297  1302,6917.855,95.437,541.007,538.433,0.0
